0 FENGYUN 1C DEB
1 30954U 99025BAU 13281.17368424  .00001138  00000-0  69479-3 0   549
2 30954 098.6435 171.1545 0146800 167.5354 345.4064 14.02645924338403
0 FENGYUN 1C DEB
1 30954U 99025BAU 13283.17120971  .00001297  00000-0  78804-3 0   553
2 30954 098.6438 173.0515 0146899 161.9479 351.9633 14.02652467338682
0 FENGYUN 1C DEB
1 30954U 99025BAU 13286.16909711  .00001405  00000-0  85173-3 0   572
2 30954 098.6442 175.8984 0147055 153.5330 009.9759 14.02659010339103
0 FENGYUN 1C DEB
1 30954U 99025BAU 13287.64753898  .00001626  00000-0  98131-3 0   583
2 30954 098.6441 177.3026 0147126 149.3871 275.4813 14.02663343339316
0 FENGYUN 1C DEB
1 30954U 99025BAU 13289.16309926  .00001654  00000-0  99746-3 0   596
2 30954 098.6442 178.7420 0147206 145.1358 008.4457 14.02669474339525
0 FENGYUN 1C DEB
1 30954U 99025BAU 13291.16223160  .00001615  00000-0  97451-3 0   604
2 30954 098.6442 180.6408 0147305 139.5331 023.2941 14.02675883339806
0 FENGYUN 1C DEB
1 30954U 99025BAU 13292.22506319  .00001648  00000-0  99351-3 0   610
2 30954 098.6442 181.6503 0147365 136.5507 350.2080 14.02679151339956
0 FENGYUN 1C DEB
1 30954U 99025BAU 13293.63290338  .00001678  00000-0  10112-2 0   628
2 30954 098.6443 182.9875 0147449 132.5931 259.3177 14.02683862340157
0 FENGYUN 1C DEB
1 30954U 99025BAU 13295.15544113  .00001628  00000-0  98174-3 0   631
2 30954 098.6446 184.4336 0147550 128.3146 027.6342 14.02689675340364
